[
    {
        "Altitude(m)": 610399.5382069518,
        "Argument of Periapsis(deg)": 0.0,
        "Eccentricity": 0.0,
        "Inclination(deg)": 60.0,
        "Latitude(deg)": 52.111360790709604,
        "Longitude(deg)": -172.41557314388555,
        "Mean Anomaly(deg)": 65.45449999999998,
        "RAAN(deg)": 240.0,
        "Satellite Name": "Test1 1060",
        "Satellite Number": 1060,
        "Semi-Major Axis(m)": 6980739.136638005,
        "Time(s)": 0
    },
    {
        "Altitude(m)": 610481.688795129,
        "Argument of Periapsis(deg)": 0.00010418945913296404,
        "Eccentricity": 0.0,
        "Inclination(deg)": 60.0,
        "Latitude(deg)": 52.47096174858931,
        "Longitude(deg)": -171.6334348981165,
        "Mean Anomaly(deg)": 66.07460614546183,
        "RAAN(deg)": 239.99957995086024,
        "Satellite Name": "Test1 1060",
        "Satellite Number": 1060,
        "Semi-Major Axis(m)": 6980739.136638005,
        "Time(s)": 10
    }
]